IRIDIUM 135             
1 43070U 17083A   26161.52355491  .00000015  00000+0 -18717-5 0  9998
2 43070  86.3958 324.8021 0002038  91.7403 268.4027 14.34217645443199
IRIDIUM 138             
1 43071U 17083B   26161.54892637  .00000114  00000+0  33766-4 0  9998
2 43071  86.3977 324.4860 0002388  87.9965 272.1504 14.34217953443189
IRIDIUM 116             
1 43072U 17083C   26161.51721251  .00000045  00000+0  90491-5 0  9991
2 43072  86.3959 324.7907 0001890  95.1571 264.9840 14.34217501443211
IRIDIUM 130             
1 43073U 17083D   26161.48549844 -.00000108  00000+0 -45525-4 0  9993
2 43073  86.3964 325.0788 0001844  88.6959 271.4448 14.34217448443155
IRIDIUM 151             
1 43074U 17083E   26161.52989791  .00000042  00000+0  78096-5 0  9993
2 43074  86.3962 324.8431 0002117  91.8560 268.2878 14.34217599443185
IRIDIUM 134             
1 43075U 17083F   26161.49818477 -.00000008  00000+0 -97814-5 0  9995
2 43075  86.3958 324.8642 0001980  89.5465 270.5957 14.34217515443148
IRIDIUM 137             
1 43076U 17083G   26161.51087005  .00000037  00000+0  60143-5 0  9999
2 43076  86.3963 324.9515 0002061 103.1197 257.0229 14.34217471443212
IRIDIUM 141             
1 43077U 17083H   26161.50452775  .00000044  00000+0  85117-5 0  9995
2 43077  86.3960 324.7854 0002204  90.7616 269.3832 14.34217694443213
IRIDIUM 153             
1 43078U 17083J   26161.59624348  .00000016  00000+0 -12144-5 0  9992
2 43078  86.3955 293.2272 0002211  90.7547 269.3902 14.34217578444336
IRIDIUM 131             
1 43079U 17083K   26161.49184253 -.00000017  00000+0 -13244-4 0  9991
2 43079  86.3961 324.9762 0002088  91.8463 268.2972 14.34217220443148
IRIDIUM 144             
1 43249U 18030A   26161.60258565  .00000005  00000+0 -53468-5 0  9993
2 43249  86.3951 293.1537 0001952  96.1551 263.9868 14.34217346429192
IRIDIUM 149             
1 43250U 18030B   26161.60892867  .00000016  00000+0 -14986-5 0  9998
2 43250  86.3952 293.1180 0002235  93.2900 266.8552 14.34217656429219
IRIDIUM 157             
1 43251U 18030C   26161.62795648  .00000018  00000+0 -78978-6 0  9994
2 43251  86.3954 293.1630 0002191  94.0372 266.1074 14.34217613429197
IRIDIUM 140             
1 43252U 18030D   26161.64698373  .00000013  00000+0 -23627-5 0  9999
2 43252  86.3954 293.1679 0002005  92.9916 267.1509 14.34217556429253
IRIDIUM 145             
1 43253U 18030E   26160.72730625  .00000121  00000+0  35989-4 0  9997
2 43253  86.3953 293.5245 0001903  97.5750 262.5662 14.34218236429052
IRIDIUM 146             
1 43254U 18030F   26161.61527072  .00000023  00000+0  10629-5 0  9993
2 43254  86.3953 293.1656 0001973  96.0489 264.0931 14.34217608429198
IRIDIUM 148             
1 43255U 18030G   26161.65332678 -.00000017  00000+0 -13061-4 0  9991
2 43255  86.3954 293.1927 0002088  97.2276 262.9157 14.34217178429230
IRIDIUM 142             
1 43256U 18030H   26161.62161201  .00000065  00000+0  16219-4 0  9990
2 43256  86.3952 293.0950 0002052  96.4403 263.7027 14.34218245429194
IRIDIUM 150             
1 43257U 18030J   26161.31082636  .00000033  00000+0  46262-5 0  9998
2 43257  86.3955 293.3412 0002115  92.6881 267.4557 14.34217809429174
IRIDIUM 143             
1 43258U 18030K   26161.64064174 -.00000144  00000+0 -58531-4 0  9998
2 43258  86.3955 293.2959 0001944  94.7721 265.3697 14.34216775429156
IRIDIUM 161             
1 43478U 18047C   26161.51323704  .00000280  00000+0  77319-4 0  9997
2 43478  86.4482  91.2614 0002554  87.1553 272.9940 14.43279257424173
IRIDIUM 152             
1 43479U 18047D   26161.54359136  .00000005  00000+0 -52202-5 0  9990
2 43479  86.3958  91.1099 0002247  83.5994 276.5458 14.34217489421535
IRIDIUM 147             
1 43480U 18047E   26161.54993358  .00000045  00000+0  90756-5 0  9991
2 43480  86.3959  91.1122 0002180  84.9301 275.2143 14.34217638421531
IRIDIUM 110             
1 43481U 18047F   26161.55627711  .00000006  00000+0 -48984-5 0  9994
2 43481  86.3958  91.2011 0002484  85.0707 275.0772 14.34217479421526
IRIDIUM 162             
1 43482U 18047G   26161.50694132  .00000278  00000+0  76631-4 0  9990
2 43482  86.4480  91.1552 0002336  83.1783 276.9683 14.43277893424166
IRIDIUM 160             
1 43569U 18061A   26161.64164933 -.00000009  00000+0 -10262-4 0  9990
2 43569  86.3964  59.5339 0002164  86.4741 273.6703 14.34217396412434
IRIDIUM 166             
1 43570U 18061B   26161.45771398  .00000213  00000+0  68974-4 0  9998
2 43570  86.3968  59.5619 0002138  85.0096 275.1344 14.34217706412433
IRIDIUM 158             
1 43571U 18061C   26161.42600064  .00000080  00000+0  21392-4 0  9992
2 43571  86.3964  59.5848 0002247  82.3522 277.7929 14.34217722412399
IRIDIUM 165             
1 43572U 18061D   26161.45136819  .00000114  00000+0  33645-4 0  9990
2 43572  86.3969  59.6204 0002089  86.0465 274.0969 14.34216565412425
IRIDIUM 155             
1 43573U 18061E   26161.62262095  .00000023  00000+0  11884-5 0  9997
2 43573  86.3962  59.4181 0002158  82.6115 277.5326 14.34217777412412
