OBJECT_NAME,OBJECT_ID,EPOCH,MEAN_MOTION,ECCENTRICITY,INCLINATION,RA_OF_ASC_NODE,ARG_OF_PERICENTER,MEAN_ANOMALY,EPHEMERIS_TYPE,CLASSIFICATION_TYPE,NORAD_CAT_ID,ELEMENT_SET_NO,REV_AT_EPOCH,BSTAR,MEAN_MOTION_DOT,MEAN_MOTION_DDOT
IRIDIUM 135,2017-083A,2026-06-10T12:33:55.144224,14.34217645,.00020386,86.3958,324.8021,91.7403,268.4027,0,U,43070,999,44319,-.1871705E-5,.15E-6,0
IRIDIUM 138,2017-083B,2026-06-10T13:10:27.238368,14.34217953,.00023885,86.3977,324.4860,87.9965,272.1504,0,U,43071,999,44318,.33765682E-4,.114E-5,0
IRIDIUM 116,2017-083C,2026-06-10T12:24:47.160864,14.34217501,.00018903,86.3959,324.7907,95.1571,264.9840,0,U,43072,999,44321,.9049082E-5,.45E-6,0
IRIDIUM 130,2017-083D,2026-06-10T11:39:07.065216,14.34217448,.00018447,86.3964,325.0788,88.6959,271.4448,0,U,43073,999,44315,-.45525168E-4,-.108E-5,0
IRIDIUM 151,2017-083E,2026-06-10T12:43:03.179424,14.34217599,.00021178,86.3962,324.8431,91.8560,268.2878,0,U,43074,999,44318,.7809609E-5,.42E-6,0
IRIDIUM 134,2017-083F,2026-06-10T11:57:23.164128,14.34217515,.00019801,86.3958,324.8642,89.5465,270.5957,0,U,43075,999,44314,-.978136E-5,-.8E-7,0
IRIDIUM 137,2017-083G,2026-06-10T12:15:39.172320,14.34217471,.00020619,86.3963,324.9515,103.1197,257.0229,0,U,43076,999,44321,.6014322E-5,.37E-6,0
IRIDIUM 141,2017-083H,2026-06-10T12:06:31.197600,14.34217694,.00022046,86.3960,324.7854,90.7616,269.3832,0,U,43077,999,44321,.851168E-5,.44E-6,0
IRIDIUM 153,2017-083J,2026-06-10T14:18:35.436672,14.34217578,.00022112,86.3955,293.2272,90.7547,269.3902,0,U,43078,999,44433,-.1214386E-5,.16E-6,0
IRIDIUM 131,2017-083K,2026-06-10T11:48:15.194592,14.34217220,.00020889,86.3961,324.9762,91.8463,268.2972,0,U,43079,999,44314,-.13243515E-4,-.17E-6,0
IRIDIUM 144,2018-030A,2026-06-10T14:27:43.400160,14.34217346,.0001952,86.3951,293.1537,96.1551,263.9868,0,U,43249,999,42919,-.5346786E-5,.5E-7,0
IRIDIUM 149,2018-030B,2026-06-10T14:36:51.437088,14.34217656,.00022353,86.3952,293.1180,93.2900,266.8552,0,U,43250,999,42921,-.1498614E-5,.16E-6,0
IRIDIUM 157,2018-030C,2026-06-10T15:04:15.439872,14.34217613,.00021916,86.3954,293.1630,94.0372,266.1074,0,U,43251,999,42919,-.789783E-6,.18E-6,0
IRIDIUM 140,2018-030D,2026-06-10T15:31:39.394272,14.34217556,.00020055,86.3954,293.1679,92.9916,267.1509,0,U,43252,999,42925,-.2362709E-5,.13E-6,0
IRIDIUM 145,2018-030E,2026-06-09T17:27:19.260000,14.34218236,.0001903,86.3953,293.5245,97.5750,262.5662,0,U,43253,999,42905,.35989E-4,.121E-5,0
IRIDIUM 146,2018-030F,2026-06-10T14:45:59.390208,14.34217608,.0001973,86.3953,293.1656,96.0489,264.0931,0,U,43254,999,42919,.1062854E-5,.23E-6,0
IRIDIUM 148,2018-030G,2026-06-10T15:40:47.433792,14.34217178,.00020884,86.3954,293.1927,97.2276,262.9157,0,U,43255,999,42923,-.13060513E-4,-.17E-6,0
IRIDIUM 142,2018-030H,2026-06-10T14:55:07.277664,14.34218245,.00020526,86.3952,293.0950,96.4403,263.7027,0,U,43256,999,42919,.16219167E-4,.65E-6,0
IRIDIUM 150,2018-030J,2026-06-10T07:27:35.397504,14.34217809,.0002115,86.3955,293.3412,92.6881,267.4557,0,U,43257,999,42917,.4626245E-5,.33E-6,0
IRIDIUM 143,2018-030K,2026-06-10T15:22:31.446336,14.34216775,.0001944,86.3955,293.2959,94.7721,265.3697,0,U,43258,999,42915,-.58530841E-4,-.144E-5,0
IRIDIUM 161,2018-047C,2026-06-10T12:19:03.680256,14.43279257,.00025544,86.4482,91.2614,87.1553,272.9940,0,U,43478,999,42417,.77319136E-4,.28E-5,0
IRIDIUM 152,2018-047D,2026-06-10T13:02:46.293504,14.34217489,.00022474,86.3958,91.1099,83.5994,276.5458,0,U,43479,999,42153,-.522016E-5,.5E-7,0
IRIDIUM 147,2018-047E,2026-06-10T13:11:54.261312,14.34217638,.00021809,86.3959,91.1122,84.9301,275.2143,0,U,43480,999,42153,.9075614E-5,.45E-6,0
IRIDIUM 110,2018-047F,2026-06-10T13:21:02.342304,14.34217479,.00024845,86.3958,91.2011,85.0707,275.0772,0,U,43481,999,42152,-.4898421E-5,.6E-7,0
IRIDIUM 162,2018-047G,2026-06-10T12:09:59.730048,14.43277893,.00023365,86.4480,91.1552,83.1783,276.9683,0,U,43482,999,42416,.76630631E-4,.278E-5,0
IRIDIUM 160,2018-061A,2026-06-10T15:23:58.502112,14.34217396,.00021644,86.3964,59.5339,86.4741,273.6703,0,U,43569,999,41243,-.10261677E-4,-.9E-7,0
IRIDIUM 166,2018-061B,2026-06-10T10:59:06.487872,14.34217706,.00021389,86.3968,59.5619,85.0096,275.1344,0,U,43570,999,41243,.68974133E-4,.213E-5,0
IRIDIUM 158,2018-061C,2026-06-10T10:13:26.455296,14.34217722,.0002247,86.3964,59.5848,82.3522,277.7929,0,U,43571,999,41239,.21392047E-4,.8E-6,0
IRIDIUM 165,2018-061D,2026-06-10T10:49:58.211616,14.34216565,.00020897,86.3969,59.6204,86.0465,274.0969,0,U,43572,999,41242,.33645064E-4,.114E-5,0
IRIDIUM 155,2018-061E,2026-06-10T14:56:34.450080,14.34217777,.00021588,86.3962,59.4181,82.6115,277.5326,0,U,43573,999,41241,.1188445E-5,.23E-6,0
